[{"OBJECT_NAME":"STARLINK-6095","OBJECT_ID":"2023-046J","EPOCH":"2026-03-09T05:46:04.840320","MEAN_MOTION":15.02532627,"ECCENTRICITY":8.256e-5,"INCLINATION":42.9998,"RA_OF_ASC_NODE":161.456,"ARG_OF_PERICENTER":219.4231,"MEAN_ANOMALY":140.6552,"EPHEMERIS_TYPE":0,"CLASSIFICATION_TYPE":"U","NORAD_CAT_ID":56101,"ELEMENT_SET_NO":999,"REV_AT_EPOCH":16199,"BSTAR":7.92342e-7,"MEAN_MOTION_DOT":-1.93e-6,"MEAN_MOTION_DDOT":0},{"OBJECT_NAME":"CZ-2D DEB","OBJECT_ID":"2017-060C","EPOCH":"2026-03-09T12:36:22.356864","MEAN_MOTION":15.07716497,"ECCENTRICITY":0.0018685,"INCLINATION":98.2453,"RA_OF_ASC_NODE":267.9231,"ARG_OF_PERICENTER":71.2095,"MEAN_ANOMALY":289.1156,"EPHEMERIS_TYPE":0,"CLASSIFICATION_TYPE":"U","NORAD_CAT_ID":44610,"ELEMENT_SET_NO":999,"REV_AT_EPOCH":45422,"BSTAR":0.00057216024,"MEAN_MOTION_DOT":8.702e-5,"MEAN_MOTION_DDOT":0}]
